[{"OBJECT_NAME":"LUR-1","OBJECT_ID":"2024-149AQ","EPOCH":"2026-03-09T19:05:45.284064","MEAN_MOTION":15.28658648,"ECCENTRICITY":0.00027765,"INCLINATION":97.379,"RA_OF_ASC_NODE":148.4255,"ARG_OF_PERICENTER":309.1571,"MEAN_ANOMALY":50.9421,"EPHEMERIS_TYPE":0,"CLASSIFICATION_TYPE":"U","NORAD_CAT_ID":60506,"ELEMENT_SET_NO":999,"REV_AT_EPOCH":8678,"BSTAR":0.0003298462,"MEAN_MOTION_DOT":9.121e-5,"MEAN_MOTION_DDOT":0},{"OBJECT_NAME":"STARLINK-32705","OBJECT_ID":"2024-254T","EPOCH":"2026-03-09T04:28:47.211456","MEAN_MOTION":15.27607131,"ECCENTRICITY":0.00014023,"INCLINATION":43.0028,"RA_OF_ASC_NODE":11.6338,"ARG_OF_PERICENTER":251.0494,"MEAN_ANOMALY":109.0206,"EPHEMERIS_TYPE":0,"CLASSIFICATION_TYPE":"U","NORAD_CAT_ID":62479,"ELEMENT_SET_NO":999,"REV_AT_EPOCH":6750,"BSTAR":0.0010548736,"MEAN_MOTION_DOT":0.00028904,"MEAN_MOTION_DDOT":0}]
